[{"OBJECT_NAME":"CHUANGXIN 16A (CX-16A)","OBJECT_ID":"2022-102A","EPOCH":"2026-03-09T19:59:28.991616","MEAN_MOTION":15.05552649,"ECCENTRICITY":0.0005063,"INCLINATION":28.9941,"RA_OF_ASC_NODE":256.1289,"ARG_OF_PERICENTER":43.7318,"MEAN_ANOMALY":316.3682,"EPHEMERIS_TYPE":0,"CLASSIFICATION_TYPE":"U","NORAD_CAT_ID":53586,"ELEMENT_SET_NO":999,"REV_AT_EPOCH":19453,"BSTAR":0.00020134,"MEAN_MOTION_DOT":3.128e-5,"MEAN_MOTION_DDOT":0},{"OBJECT_NAME":"COSMOS 2251 DEB","OBJECT_ID":"1993-036SU","EPOCH":"2026-03-09T16:21:38.417760","MEAN_MOTION":15.03076437,"ECCENTRICITY":0.00203067,"INCLINATION":74.0425,"RA_OF_ASC_NODE":271.4678,"ARG_OF_PERICENTER":270.4432,"MEAN_ANOMALY":89.443,"EPHEMERIS_TYPE":0,"CLASSIFICATION_TYPE":"U","NORAD_CAT_ID":34451,"ELEMENT_SET_NO":999,"REV_AT_EPOCH":89938,"BSTAR":0.0023702619,"MEAN_MOTION_DOT":0.00032214,"MEAN_MOTION_DDOT":0}]
